[{"OBJECT_NAME":"NAPA-2","OBJECT_ID":"2021-059CN","EPOCH":"2026-03-09T23:29:49.102656","MEAN_MOTION":15.70952391,"ECCENTRICITY":0.00036606,"INCLINATION":97.6849,"RA_OF_ASC_NODE":256.4978,"ARG_OF_PERICENTER":316.466,"MEAN_ANOMALY":43.6312,"EPHEMERIS_TYPE":0,"CLASSIFICATION_TYPE":"U","NORAD_CAT_ID":48963,"ELEMENT_SET_NO":999,"REV_AT_EPOCH":26212,"BSTAR":0.00074486022,"MEAN_MOTION_DOT":0.00093758,"MEAN_MOTION_DDOT":0},{"OBJECT_NAME":"STARLINK-11526 [DTC]","OBJECT_ID":"2025-032C","EPOCH":"2026-03-09T14:15:29.902176","MEAN_MOTION":15.70847266,"ECCENTRICITY":0.000156,"INCLINATION":42.9997,"RA_OF_ASC_NODE":195.4811,"ARG_OF_PERICENTER":271.6242,"MEAN_ANOMALY":88.4447,"EPHEMERIS_TYPE":0,"CLASSIFICATION_TYPE":"U","NORAD_CAT_ID":63007,"ELEMENT_SET_NO":999,"REV_AT_EPOCH":6220,"BSTAR":0.00089162,"MEAN_MOTION_DOT":0.00115597,"MEAN_MOTION_DDOT":0}]
